UNIBRITE                
1 39092U 13009G   17117.82923316  .00000036  00000-0  28027-4 0  9999
2 39092  98.5559 322.8283 0010599  90.7291 269.5109 14.34898699218246
AIST-2                  
1 39133U 13015D   17117.90832486  .00000407  00000-0  41495-4 0  9994
2 39133  64.8730  84.4464 0035503 290.9454  68.7868 15.04251051220346
SOMP                    
1 39134U 13015E   17117.94078594  .00002141  00000-0  11437-3 0  9990
2 39134  64.8700  28.6216 0033578 281.8215  77.9146 15.17637569221475
BEESAT-2                
1 39136U 13015G   17117.94226247  .00001784  00000-0  10461-3 0  9990
2 39136  64.8727  38.6136 0030435 290.8594  68.9272 15.14953386221270
NEE-01 PEGASUS          
1 39151U 13018B   17117.72369487  .00000343  00000-0  52608-4 0  9990
2 39151  97.9822 209.5653 0016520 209.2440 150.7849 14.79691798216074
CUBEBUG-1 (CAPITAN BETO)
1 39153U 13018D   17117.72940361  .00000402  00000-0  59942-4 0  9992
2 39153  97.9842 210.2990 0016467 207.5450 152.4891 14.80151691216120
ESTCUBE 1               
1 39161U 13021C   17117.75687536  .00000413  00000-0  73954-4 0  9991
2 39161  98.0273 204.4157 0008139 310.6627  49.3863 14.71873578213336
POPACS 1                
1 39268U 13055D   17117.86659317  .00011642  00000-0  33600-3 0  9993
2 39268  81.0060  60.6885 0653941   7.2901 353.7232 14.30412124184993
POPACS 2                
1 39269U 13055E   17117.88692097  .00006184  00000-0  18139-3 0  9993
2 39269  81.0175  74.5294 0703470  43.5056 321.9451 14.19529178182944
POPACS 3                
1 39270U 13055F   17117.91644595  .00004008  00000-0  12517-3 0  9996
2 39270  81.0188  82.0336 0727778  66.5613 301.0340 14.12906983162975
FIREFLY                 
1 39404U 13064AA  17117.83069401  .00041923  00000-0  30469-3 0  9996
2 39404  40.4999 260.6134 0005888  32.0348 328.0835 15.72497878193323
ZACUBE-1 (TSHEPISOSAT)  
1 39417U 13066B   17117.81523503  .00000433  00000-0  61176-4 0  9999
2 39417  97.6350 162.4859 0060907  75.2758 285.5194 14.80678012185327
WNISAT-1                
1 39423U 13066H   17117.85627544  .00000206  00000-0  51019-4 0  9993
2 39423  97.6798 110.4040 0174491 235.3346 123.1299 14.52829577181929
TRITON-1                
1 39427U 13066M   17117.93653226  .00000303  00000-0  56380-4 0  9996
2 39427  97.6408 136.6557 0115286 149.0984 211.7074 14.67429504183480
GOMX 1                  
1 39430U 13066Q   17117.96532357  .00000241  00000-0  52927-4 0  9998
2 39430  97.6650 120.8338 0151400 201.1190 158.3718 14.58839585182420
BRITE-PL                
1 39431U 13066R   17117.90966782  .00000044  00000-0  20181-4 0  9994
2 39431  97.7025 100.1380 0201229 271.3858  86.4293 14.46831878180983
HUMSAT-D                
1 39433U 13066T   17117.73383578  .00000929  00000-0  97854-4 0  9996
2 39433  97.6565 182.3364 0031789  27.6407 332.6493 14.91369684186492
EAGLE 2                 
1 39436U 13066W   17117.50964786  .00031487  00000-0  92666-3 0  9998
2 39436  97.7059 221.0985 0010794 256.5402 103.4638 15.34959271187722
CUBEBUG-2 (LO-74)       
1 39440U 13066AA  17117.65278385  .00000417  00000-0  65162-4 0  9993
2 39440  97.6338 151.9083 0082396 104.1730 256.8652 14.75418776184646
NEE-02 KRYSAOR          
1 39441U 13066AB  17117.63177710  .00000303  00000-0  50066-4 0  9993
2 39441  97.6318 150.6728 0083720 107.4779 253.5602 14.74594071183378
FUNCUBE-1 (AO-73)       
1 39444U 13066AE  17117.68457815  .00000553  00000-0  74975-4 0  9990
2 39444  97.6365 163.3507 0060055  72.7455 288.0319 14.81402603184130
UWE-3                   
1 39446U 13066AG  17117.91318022  .00000415  00000-0  61896-4 0  9999
2 39446  97.6332 157.0975 0072103  89.3589 271.5884 14.77951202183181
BRITE-TORONTO           
1 40020U 14033L   17117.88279069  .00000123  00000-0  29446-4 0  9998
2 40020  97.8435 350.9017 0088765 126.4674 234.4752 14.66376679152722
DUCHIFAT-1              
1 40021U 14033M   17117.86016812  .00000711  00000-0  79901-4 0  9996
2 40021  97.9209  30.9481 0014538 104.8818 255.4010 14.89829837155109
FLOCK 1C-10             
1 40023U 14033P   17117.78525227  .00001620  00000-0  17954-3 0  9993
2 40023  97.9244  30.0153 0013813 108.9391 251.3345 14.88629210155000
NANOSATC-BR1            
1 40024U 14033Q   17117.70521081  .00000728  00000-0  82984-4 0  9994
2 40024  97.9170  29.7589 0013775 106.1428 254.1306 14.89163449154516
QB50P1                  
1 40025U 14033R   17117.79236067  .00000521  00000-0  62282-4 0  9991
2 40025  97.9154  28.9615 0013972 108.4459 251.8277 14.88377266154994
FLOCK 1C-7              
1 40026U 14033S   17117.69252459  .00001610  00000-0  17546-3 0  9996
2 40026  97.9262  30.5757 0012171 104.9985 255.2493 14.89362179155038
FLOCK 1C-1              
1 40027U 14033T   17117.68815221  .00001614  00000-0  17866-3 0  9997
2 40027  97.9245  30.1279 0013662 106.5820 253.6868 14.88692802155000
POPSAT-HIP-1            
1 40028U 14033U   17117.81954482  .00000798  00000-0  92402-4 0  9998
2 40028  97.9190  29.2472 0015246 105.9396 254.3490 14.88250592154986
FLOCK 1C-2              
1 40029U 14033V   17117.71759820  .00001574  00000-0  17422-3 0  9998
2 40029  97.9257  30.0230 0015257 103.5108 256.7835 14.88710352154995
FLOCK 1C-4              
1 40031U 14033X   17117.72898287  .00001439  00000-0  16030-3 0  9997
2 40031  97.9258  30.0294 0015844 102.0177 258.2829 14.88573373154980
QB50P2                  
1 40032U 14033Y   17117.75761221  .00000538  00000-0  64755-4 0  9995
2 40032  97.9129  28.0982 0013398 103.7188 256.5520 14.87936282154420
FLOCK 1C-11             
1 40033U 14033Z   17117.70539988  .00001713  00000-0  18283-3 0  9994
2 40033  97.9262  31.2614 0013118  95.5687 264.7021 14.90110098155071
ANTELSAT                
1 40034U 14033AA  17117.90325846  .00000389  00000-0  65607-4 0  9994
2 40034  97.8661   3.3753 0060575  94.4226 266.3906 14.73663798152982
FLOCK 1C-9              
1 40035U 14033AB  17117.70815973  .00001491  00000-0  16527-3 0  9999
2 40035  97.9272  30.3499 0013029  97.3673 262.9024 14.88762255154999
FLOCK 1C-6              
1 40036U 14033AC  17117.79989595  .00001824  00000-0  20033-3 0  9998
2 40036  97.9289  30.6342 0013265  96.4287 263.8422 14.88870354155028
PERSEUS-M2              
1 40037U 14033AD  17117.69946939  .00000208  00000-0  29963-4 0  9990
2 40037  97.9154  26.7165 0015824 109.0400 251.2531 14.86206796154314
FLOCK 1C-5              
1 40038U 14033AE  17117.53813928  .00001748  00000-0  19206-3 0  9993
2 40038  97.9271  30.1949 0015749  98.3757 261.9146 14.88866930154971
PERSEUS-M1              
1 40039U 14033AF  17117.82116885  .00000196  00000-0  28807-4 0  9998
2 40039  97.9162  26.4258 0015718 104.8926 255.4031 14.85831542154282
FLOCK 1C-8              
1 40040U 14033AG  17117.72877875  .00002090  00000-0  21796-3 0  9996
2 40040  97.9299  32.2999 0014312  85.8242 274.4623 14.90795258155110
FLOCK 1C-3              
1 40041U 14033AH  17117.69158466  .00001622  00000-0  18010-3 0  9996
2 40041  97.9279  30.1484 0014243  94.7877 265.4932 14.88563540154971
POLYITAN-1              
1 40042U 14033AJ  17117.75290921  .00000643  00000-0  76001-4 0  9994
2 40042  97.9227  28.8882 0016309  97.7076 262.5992 14.88006179154413
TIGRISAT                
1 40043U 14033AK  17117.87274996  .00000269  00000-0  47301-4 0  9997
2 40043  97.8642   3.9742 0061712  95.9530 264.8717 14.73953574153127
LEMUR-1                 
1 40044U 14033AL  17117.91583820  .00000277  00000-0  48776-4 0  9998
2 40044  97.8639   3.7766 0060851  96.8549 263.9588 14.73779322153012
AEROCUBE 6A             
1 40045U 14033AM  17117.72610688  .00000636  00000-0  99844-4 0  9992
2 40045  97.8750   4.8463 0059908  91.9920 268.8151 14.74770565153047
AEROCUBE 6B             
1 40046U 14033AN  17117.25126953  .00000729  00000-0  11344-3 0  9999
2 40046  97.8745   4.3222 0059135  93.0930 267.7048 14.74772136152976
UKUBE-1                 
1 40074U 14037F   17117.84040769  .00000906  00000-0  11735-3 0  9990
2 40074  98.3403 230.5143 0003977 198.7320 161.3748 14.83458186151711
BRITE-PL 2              
1 40119U 14049B   17117.78390368  .00000244  00000-0  35741-4 0  9998
2 40119  97.9362 203.9510 0016211 252.2068 107.7377 14.84115139145592
FIREBIRD 4              
1 40378U 15003C   17117.94748016  .00004851  00000-0  20854-3 0  9997
2 40378  99.1206 291.9378 0137539 168.3190 192.1284 15.15098062123398
GRIFEX                  
1 40379U 15003D   17117.78581521  .00003196  00000-0  14683-3 0  9990
2 40379  99.1216 289.7363 0143029 175.7733 184.4739 15.12719344123260
EXOCUBE                 
1 40380U 15003E   17117.72316331  .00002961  00000-0  14079-3 0  9999
2 40380  99.1252 288.5187 0146395 179.5364 180.6024 15.11298453123160
DEORBITSAIL             
1 40719U 15032E   17117.95678016  .00000657  00000-0  10272-3 0  9994
2 40719  97.9859  12.3290 0015543 309.1394  50.8433 14.76002439 96918
TIANWANG 1C (TW-1C)     
1 40926U 15051B   17117.85064436  .00014345  00000-0  33754-3 0  9998
2 40926  97.2349 157.8130 0011533   0.9630  83.4861 15.42000022 89163
TIANWANG 1B (TW-1B)     
1 40927U 15051C   17117.89255963  .00013750  00000-0  33549-3 0  9991
2 40927  97.2436 157.8915 0011894  10.5538 114.8392 15.40911759 89126
TIANWANG 1A (TW-1A)     
1 40928U 15051D   17117.79212189  .00007759  00000-0  22472-3 0  9999
2 40928  97.2321 154.5108 0013659  27.3955  62.4426 15.35755461 88965
LEMUR-2-JOEL            
1 40932U 15052C   17117.32237063  .00001410  00000-0  10453-3 0  9996
2 40932   6.0111 231.1210 0014841 262.7024  97.1332 14.77445689 85474
LEMUR-2-CHRIS           
1 40933U 15052D   17117.32965153  .00001031  00000-0  52397-4 0  9998
2 40933   6.0077 229.9966 0015505 263.7687  96.0633 14.77589281 85483
LEMUR-2-JEROEN          
1 40934U 15052E   17117.27775888  .00001220  00000-0  80307-4 0  9999
2 40934   6.0089 235.1325 0011986 249.8364 110.0413 14.76906682 85403
